1 37673U 11024A   12289.57144421 -.00000049 +00000-0 +00000-0 0  9998
2 37673 098.0118 294.5178 0001283 080.7774 279.3582 14.72332608072537
1 37673U 11024A   12289.97920662 -.00000049  00000-0  00000+0 0  9990
2 37673 098.0114 294.9199 0001224 074.0971 286.0436 14.72333221 72591
1 37673U 11024A   12290.59084813 -.00000049 +00000-0 +00000-0 0  9990
2 37673 098.0118 295.5230 0001247 084.8525 275.2858 14.72333895072682
1 37673U 11024A   12291.06656998 -.00000049  00000-0  00000+0 0  9991
2 37673 098.0113 295.9919 0001293 076.0219 284.1185 14.72334683 72755
1 37673U 11024A   12291.95005177 -.00000049 +00000-0 +00000-0 0  9997
2 37673 098.0115 296.8626 0001284 085.2734 274.8641 14.72335432072886
1 37673U 11024A   12292.15393223 -.00000049  00000-0  00000+0 0  9991
2 37673 098.0114 297.0635 0001368 076.5553 283.5832 14.72335951 72912
1 37673U 11024A   12292.83353334 -.00000049 +00000-0 +00000-0 0  9996
2 37673 098.0118 297.7335 0001341 076.7337 283.4022 14.72336418073014
1 37673U 11024A   12293.17333449 -.00000049  00000-0  00000+0 0  9998
2 37673 098.0116 298.0685 0001324 073.1539 286.9871 14.72337012 73066
1 37673U 11024A   12294.46457403 -.00000049  00000-0  00000+0 0  9998
2 37673 098.0118 299.3411 0001181 073.9312 286.2039 14.72338464 73259
1 37673U 11024A   12294.60049405 -.00000049 +00000-0 +00000-0 0  9994
2 37673 098.0121 299.4752 0001211 084.1125 276.0275 14.72338885073270
1 37673U 11024A   12295.48397282 -.00000049  00000-0  00000+0 0  9999
2 37673 098.0125 300.3463 0001205 078.1483 281.9888 14.72340133 73407
1 37673U 11024A   12295.61989242 -.00000049 +00000-0 +00000-0 0  9998
2 37673 098.0125 300.4800 0001275 088.3720 271.7692 14.72340621073421
1 37673U 11024A   12296.50337013 -.00000049  00000-0  00000+0 0  9999
2 37673 098.0127 301.3508 0001251 085.5822 274.5588 14.72342094 73559
1 37673U 11024A   12296.57132899 -.00000049 +00000-0 +00000-0 0  9992
2 37673 098.0127 301.4178 0001214 086.8538 273.2823 14.72342225073565
1 37673U 11024A   12297.52276669 -.00000049  00000-0  00000+0 0  9991
2 37673 098.0127 302.3557 0001124 067.9700 292.1655 14.72343348 73703
1 37673U 11024A   12297.59072606 -.00000049 +00000-0 +00000-0 0  9994
2 37673 098.0129 302.4230 0001178 072.8421 287.2942 14.72343596073718
1 37673U 11024A   12298.61012060 -.00000049  00000-0  00000+0 0  9995
2 37673 098.0122 303.4277 0001243 076.9607 283.1765 14.72345651 73865
1 37673U 11024A   12299.62951439 -.00000049  00000-0  00000+0 0  9999
2 37673 098.0122 304.4326 0001246 076.3314 283.8051 14.72347362 74017
1 37673U 11024A   12301.05666427 -.00000049  00000-0  00000+0 0  9990
2 37673 098.0117 305.8391 0001194 057.4910 302.6473 14.72349890 74221
1 37673U 11024A   12302.07605458 -.00000049  00000-0  00000+0 0  9990
2 37673 098.0111 306.8443 0001226 062.3640 297.7694 14.72351449 74373
1 37673U 11024A   12303.36728311 -.00000049  00000-0  00000+0 0  9997
2 37673 098.0110 308.1167 0001307 065.5331 294.6024 14.72352869 74563
1 37673U 11024A   12304.45463132 -.00000049  00000-0  00000+0 0  9995
2 37673 098.0112 309.1885 0001216 065.3567 294.7797 14.72354517 74729
